[
    {
        "Altitude(m)": 624790.8321349743,
        "Argument of Periapsis(deg)": 0.0,
        "Eccentricity": 0.0,
        "Inclination(deg)": 60.0,
        "Latitude(deg)": -59.147227983894936,
        "Longitude(deg)": -118.96548308478282,
        "Mean Anomaly(deg)": 278.1818,
        "RAAN(deg)": 55.00000000000001,
        "Satellite Name": "Test1 259",
        "Satellite Number": 259,
        "Semi-Major Axis(m)": 6980739.136638005,
        "Time(s)": 0
    },
    {
        "Altitude(m)": 624737.4876476508,
        "Argument of Periapsis(deg)": 0.00010418945913296404,
        "Eccentricity": 0.0,
        "Inclination(deg)": 60.0,
        "Latitude(deg)": -58.994684152282346,
        "Longitude(deg)": -117.84597685426331,
        "Mean Anomaly(deg)": 278.8019061454619,
        "RAAN(deg)": 54.999579950860266,
        "Satellite Name": "Test1 259",
        "Satellite Number": 259,
        "Semi-Major Axis(m)": 6980739.136638005,
        "Time(s)": 10
    }
]